APRIZESAT 2             
1 28366U 04025A   26189.29796572  .00000171  00000+0  65961-4 0  9998
2 28366  98.1034 354.0852 0105459 185.6575 174.3430 14.38045375154675
SAUDICOMSAT 1           
1 28369U 04025D   26189.46490835  .00000260  00000+0  70810-4 0  9991
2 28369  98.5774 200.1708 0031283 320.1502  39.7398 14.55490437167227
SAUDICOMSAT 2           
1 28370U 04025E   26189.58612479  .00000149  00000+0  50303-4 0  9997
2 28370  98.6640 202.4373 0055167 193.7340 166.2356 14.49992206163204
APRIZESAT 1             
1 28372U 04025G   26189.59131947  .00000196  00000+0  60131-4 0  9998
2 28372  98.6306 200.8994 0045812  90.2583 270.3861 14.51789509165014
NANOSAT-1               
1 28493U 04049B   26189.32794772  .00000768  00000+0  10838-3 0  9993
2 28493  98.2301 326.5091 0003274 208.0623 152.0412 14.80201902158572
SAUDICOMSAT 7           
1 31119U 07012C   26188.86021588  .00000402  00000+0  80931-4 0  9998
2 31119  98.3791 163.4163 0056673 130.8041 229.8098 14.66131230 25464
SAUDICOMSAT 6           
1 31121U 07012E   26188.88784405  .00000315  00000+0  70217-4 0  9996
2 31121  98.4110 156.7911 0070366 262.2767  97.0440 14.62580128 23216
SAUDICOMSAT 5           
1 31124U 07012H   26188.87286536  .00000588  00000+0  10948-3 0  9996
2 31124  98.3502 164.1719 0048589  61.3738 299.2341 14.68185620 26639
SAUDICOMSAT 3           
1 31125U 07012J   26188.86551045  .00000630  00000+0  11101-3 0  9996
2 31125  98.3156 164.7113 0038800 348.7172  11.3160 14.70741724 27862
SAUDICOMSAT 4           
1 31127U 07012L   26188.85636862  .00000318  00000+0  68248-4 0  9996
2 31127  98.3996 161.8498 0063041 192.6754 167.2866 14.64530915 24319
APRIZESAT 4             
1 35684U 09041D   26188.75612091  .00000543  00000+0  71454-4 0  9992
2 35684  98.1405 264.4862 0041930 254.3409 105.3176 14.83907056914416
APRIZESAT 3             
1 35686U 09041F   26189.36472022  .00001101  00000+0  99795-4 0  9999
2 35686  98.2085 343.6064 0061311 358.3556   1.7453 14.96295907919545
S-NET D                 
1 43186U 18014G   26188.78109211  .00002498  00000+0  13032-3 0  9994
2 43186  97.5338  93.4434 0006667 316.9276  43.1435 15.16872537461887
S-NET B                 
1 43187U 18014H   26188.79294883  .00002738  00000+0  14261-3 0  9998
2 43187  97.5345  93.4425 0007191 310.8381  49.2228 15.16843316461889
S-NET A                 
1 43188U 18014J   26189.04372199  .00002549  00000+0  13284-3 0  9999
2 43188  97.5353  93.9045 0007099 310.6146  49.4469 15.16882407461924
S-NET C                 
1 43189U 18014K   26189.32468055  .00002663  00000+0  13876-3 0  9992
2 43189  97.5370  94.2616 0008185 298.9702  61.0709 15.16838324460515
SALSAT                  
1 46495U 20068K   26189.46701474  .00004931  00000+0  17203-3 0  9995
2 46495  97.8859 193.8315 0008516 218.2627 141.8009 15.30108644318618
OOV-CUBE (TUBSAT-30)    
1 60240U 24128F   26189.34741513  .00001256  00000+0  10730-3 0  9990
2 60240  61.9938 151.7829 0042004 138.3639 222.0664 15.02855291109297
LPNTSAT-001 (IOD-1)     
1 68408U 26065A   26189.55771311  .00001842  00000+0  91983-4 0  9999
2 68408  97.3994  69.6137 0014710 292.3123  67.6551 15.18647906 15504
